[
    {
        "OBJECT_NAME": "GSLV R/B",
        "OBJECT_ID": "2022-138AN",
        "EPOCH": "2026-05-16T18:30:11.223936",
        "MEAN_MOTION": 14.97109349,
        "ECCENTRICITY": 0.0018664,
        "INCLINATION": 87.3796,
        "RA_OF_ASC_NODE": 143.5362,
        "ARG_OF_PERICENTER": 263.2204,
        "MEAN_ANOMALY": 96.6904,
        "EPHEMERIS_TYPE": 0,
        "CLASSIFICATION_TYPE": "U",
        "NORAD_CAT_ID": 54149,
        "ELEMENT_SET_NO": 999,
        "REV_AT_EPOCH": 19411,
        "BSTAR": 0.00014223,
        "MEAN_MOTION_DOT": 1.674e-05,
        "MEAN_MOTION_DDOT": 0
    },
    {
        "OBJECT_NAME": "XRISM",
        "OBJECT_ID": "2023-137A",
        "EPOCH": "2026-05-16T12:14:23.714016",
        "MEAN_MOTION": 15.12182517,
        "ECCENTRICITY": 0.0007607,
        "INCLINATION": 31.0013,
        "RA_OF_ASC_NODE": 204.7489,
        "ARG_OF_PERICENTER": 4.1665,
        "MEAN_ANOMALY": 355.9036,
        "EPHEMERIS_TYPE": 0,
        "CLASSIFICATION_TYPE": "U",
        "NORAD_CAT_ID": 57800,
        "ELEMENT_SET_NO": 999,
        "REV_AT_EPOCH": 14806,
        "BSTAR": 0.00017978,
        "MEAN_MOTION_DOT": 3.278e-05,
        "MEAN_MOTION_DDOT": 0
    },
    {
        "OBJECT_NAME": "ACS3",
        "OBJECT_ID": "2024-077B",
        "EPOCH": "2026-05-16T19:46:19.598016",
        "MEAN_MOTION": 13.92769786,
        "ECCENTRICITY": 0.0025578,
        "INCLINATION": 97.1736,
        "RA_OF_ASC_NODE": 62.6337,
        "ARG_OF_PERICENTER": 353.2021,
        "MEAN_ANOMALY": 6.8794,
        "EPHEMERIS_TYPE": 0,
        "CLASSIFICATION_TYPE": "U",
        "NORAD_CAT_ID": 59588,
        "ELEMENT_SET_NO": 999,
        "REV_AT_EPOCH": 10367,
        "BSTAR": 0.00074899,
        "MEAN_MOTION_DOT": 9.43e-06,
        "MEAN_MOTION_DDOT": 0
    },
    {
        "OBJECT_NAME": "HTV-X1",
        "OBJECT_ID": "2025-241A",
        "EPOCH": "2026-05-16T03:19:07.355712",
        "MEAN_MOTION": 15.63550749,
        "ECCENTRICITY": 0.0007566,
        "INCLINATION": 51.6343,
        "RA_OF_ASC_NODE": 102.4771,
        "ARG_OF_PERICENTER": 65.8114,
        "MEAN_ANOMALY": 294.3671,
        "EPHEMERIS_TYPE": 0,
        "CLASSIFICATION_TYPE": "U",
        "NORAD_CAT_ID": 66174,
        "ELEMENT_SET_NO": 999,
        "REV_AT_EPOCH": 3133,
        "BSTAR": 0.0001391058,
        "MEAN_MOTION_DOT": 0.00012648,
        "MEAN_MOTION_DDOT": 0
    },
    {
        "OBJECT_NAME": "SZ-21 MODULE",
        "OBJECT_ID": "2025-246C",
        "EPOCH": "2026-05-16T07:42:18.383040",
        "MEAN_MOTION": 15.73677501,
        "ECCENTRICITY": 0.00032408,
        "INCLINATION": 41.4711,
        "RA_OF_ASC_NODE": 145.3769,
        "ARG_OF_PERICENTER": 154.9557,
        "MEAN_ANOMALY": 205.1445,
        "EPHEMERIS_TYPE": 0,
        "CLASSIFICATION_TYPE": "U",
        "NORAD_CAT_ID": 66515,
        "ELEMENT_SET_NO": 999,
        "REV_AT_EPOCH": 2871,
        "BSTAR": 0.00026668694,
        "MEAN_MOTION_DOT": 0.00038446,
        "MEAN_MOTION_DDOT": 0
    }
]