GSLV R/B                
1 54149U 22138AN  26136.77096324  .00001674  00000+0  14223-3 0  9997
2 54149  87.3796 143.5362 0018664 263.2204  96.6904 14.97109349194110
XRISM                   
1 57800U 23137A   26136.50999669  .00003278  00000+0  17978-3 0  9991
2 57800  31.0013 204.7489 0007607   4.1665 355.9036 15.12182517148069
ACS3                    
1 59588U 24077B   26136.82383794  .00000943  00000+0  74899-3 0  9992
2 59588  97.1736  62.6337 0025578 353.2021   6.8794 13.92769786103679
HTV-X1                  
1 66174U 25241A   26136.13827958  .00012648  00000+0  13911-3 0  9997
2 66174  51.6343 102.4771 0007566  65.8114 294.3671 15.63550749 31336
SZ-21 MODULE            
1 66515U 25246C   26136.32104610  .00038446  00000+0  26669-3 0  9993
2 66515  41.4711 145.3769 0003240 154.9557 205.1445 15.73677501 28714
